[{"OBJECT_ID":"2002-041A","OBJECT_NAME":"INTELSAT 906","NORAD_CAT_ID":"27513","OBJECT_TYPE":"PAYLOAD","PERIOD":"1436.093","INCLINATION":"0.0499","APOGEE":"35798.568","PERIGEE":"35774.475","ECCENTRICITY":"0.0002857","MEAN_MOTION":"1.00272053","TLE_LINE1":"1 27513U 02041A   16238.94383203 -.00000013 +00000-0 +00000-0 0  9992","TLE_LINE2":"2 27513 000.0499 270.4908 0002857 286.1138 181.9385 01.00272053051116","LAUNCH_DATE":"2002-09-06","LAUNCH_SITE":"FRENCH GUIANA","OWNER":"INTERNATIONAL TELECOMMUNICATIONS SATELLITE ORGANIZATION (INTELSAT)","ORBIT_TYPE":"Geosynchronous","OPERATIONAL_STATUS":"Operational","satInfo":{"lng":86.06271203086646,"lat":-0.05872167035298642,"elevation":-8.629142133430186,"azimuth":228.93728796913354,"range":42657.814809040756,"height":35796.82181543234,"velocity":3.073966102866532},"x":357,"y":-25,"dx":2,"dy":-31},{"OBJECT_ID":"2002-044A","OBJECT_NAME":"HISPASAT 1D","NORAD_CAT_ID":"27528","OBJECT_TYPE":"PAYLOAD","PERIOD":"1436.114","INCLINATION":"0.0544","APOGEE":"35796.897","PERIGEE":"35776.970","ECCENTRICITY":"0.0002363","MEAN_MOTION":"1.00270582","TLE_LINE1":"1 27528U 02044A   16238.81613514 -.00000244  00000-0  00000+0 0  9993","TLE_LINE2":"2 27528   0.0544 301.9971 0002363 245.3436  50.9588  1.00270582 51028","LAUNCH_DATE":"2002-09-18","LAUNCH_SITE":"AIR FORCE EASTERN TEST RANGE","OWNER":"SPAIN","ORBIT_TYPE":"Geosynchronous","OPERATIONAL_STATUS":"Operational","satInfo":{"lng":-48.17209335733391,"lat":0.5339833162373678,"elevation":-8.05518030747853,"azimuth":3.1720933573338552,"range":42566.55465118342,"height":35770.26652719274,"velocity":3.0752832733321176},"x":-267,"y":-239,"dx":21,"dy":23},{"OBJECT_ID":"2002-051A","OBJECT_NAME":"EUTE 25C (EUTE W5)","NORAD_CAT_ID":"27554","OBJECT_TYPE":"PAYLOAD","PERIOD":"1435.691","INCLINATION":"0.7679","APOGEE":"35819.702","PERIGEE":"35737.606","ECCENTRICITY":"0.0009737","MEAN_MOTION":"1.00300124","TLE_LINE1":"1 27554U 02051A   16239.42919880 -.00000380  00000-0  00000+0 0  9994","TLE_LINE2":"2 27554   0.7679  89.6988 0009737 207.0088 318.5199  1.00300124 50443","LAUNCH_DATE":"2002-11-20","LAUNCH_SITE":"AIR FORCE EASTERN TEST RANGE","OWNER":"EUROPEAN TELECOMMUNICATIONS SATELLITE ORGANIZATION (EUTELSAT)","ORBIT_TYPE":"Geosynchronous","OPERATIONAL_STATUS":"Nonoperational","satInfo":{"lng":123.12838135883793,"lat":1.9650825423406926,"elevation":-6.640183036588642,"azimuth":191.87161864116206,"range":42471.48257173056,"height":35833.24216581632,"velocity":3.071675179614294},"x":300,"y":196,"dx":-17,"dy":-26},{"OBJECT_ID":"2002-057A","OBJECT_NAME":"NSS 6","NORAD_CAT_ID":"27603","OBJECT_TYPE":"PAYLOAD","PERIOD":"1436.154","INCLINATION":"0.0199","APOGEE":"35796.899","PERIGEE":"35778.540","ECCENTRICITY":"0.0002177","MEAN_MOTION":"1.00267778","TLE_LINE1":"1 27603U 02057A   16238.91824346 -.00000297 +00000-0 +00000-0 0  9998","TLE_LINE2":"2 27603 000.0199 124.8491 0002177 083.8884 191.4202 01.00267778050174","LAUNCH_DATE":"2002-12-17","LAUNCH_SITE":"FRENCH GUIANA","OWNER":"SOCIÉTÉ EUROPÉENNE DES SATELLITES","ORBIT_TYPE":"Geosynchronous","OPERATIONAL_STATUS":"Operational","satInfo":{"lng":55.16332466396678,"lat":-1.8030858932634632,"elevation":-10.329254888577092,"azimuth":259.83667533603324,"range":42847.59313703205,"height":35795.912148491414,"velocity":3.074004818088392},"x":294,"y":-204,"dx":18,"dy":-25},{"OBJECT_ID":"2002-062A","OBJECT_NAME":"NIMIQ 2","NORAD_CAT_ID":"27632","OBJECT_TYPE":"PAYLOAD","PERIOD":"1436.064","INCLINATION":"1.3724","APOGEE":"35799.026","PERIGEE":"35772.884","ECCENTRICITY":"0.00031","MEAN_MOTION":"1.00274072","TLE_LINE1":"1 27632U 02062A   16238.24077372 +.00000111 +00000-0 +00000-0 0  9995","TLE_LINE2":"2 27632 001.3724 083.7594 0003100 020.8984 339.6488 01.00274072008282","LAUNCH_DATE":"2002-12-29","LAUNCH_SITE":"TYURATAM MISSILE AND SPACE COMPLEX","OWNER":"CANADA","ORBIT_TYPE":"Geosynchronous","OPERATIONAL_STATUS":"Operational","satInfo":{"lng":54.48672105516273,"lat":-1.4452768068341892,"elevation":-9.988512370132495,"azimuth":260.5132789448373,"range":42771.99768153075,"height":35758.93769339589,"velocity":3.0757892992534797},"x":291,"y":-208,"dx":18,"dy":-25},{"OBJECT_ID":"2003-007A","OBJECT_NAME":"INTELSAT 907","NORAD_CAT_ID":"27683","OBJECT_TYPE":"PAYLOAD","PERIOD":"1436.090","INCLINATION":"0.0291","APOGEE":"35798.049","PERIGEE":"35774.909","ECCENTRICITY":"0.0002744","MEAN_MOTION":"1.00272205","TLE_LINE1":"1 27683U 03007A   16239.14634732 -.00000230  00000-0  00000+0 0  9992","TLE_LINE2":"2 27683   0.0291 254.5025 0002744 278.7485 186.7456  1.00272205 49471","LAUNCH_DATE":"2003-02-15","LAUNCH_SITE":"FRENCH GUIANA","OWNER":"INTERNATIONAL TELECOMMUNICATIONS SATELLITE ORGANIZATION (INTELSAT)","ORBIT_TYPE":"Geosynchronous","OPERATIONAL_STATUS":"Operational","satInfo":{"lng":-55.918282611343685,"lat":1.792114320442572,"elevation":-6.823300233777542,"azimuth":10.91828261134366,"range":42425.16917500555,"height":35767.13985686658,"velocity":3.0753560500930193},"x":-296,"y":-200,"dx":17,"dy":25},{"OBJECT_ID":"2003-013A","OBJECT_NAME":"INSAT 3A","NORAD_CAT_ID":"27714","OBJECT_TYPE":"PAYLOAD","PERIOD":"1436.076","INCLINATION":"0.0637","APOGEE":"35810.707","PERIGEE":"35761.696","ECCENTRICITY":"0.0005812","MEAN_MOTION":"1.00273194","TLE_LINE1":"1 27714U 03013A   16238.95394581 -.00000286 +00000-0 +00000-0 0  9999","TLE_LINE2":"2 27714 000.0637 273.6428 0005812 201.8514 296.0580 01.00273194048962","LAUNCH_DATE":"2003-04-09","LAUNCH_SITE":"FRENCH GUIANA","OWNER":"INDIA","ORBIT_TYPE":"Geosynchronous","OPERATIONAL_STATUS":"Operational","satInfo":{"lng":56.65450414442399,"lat":1.1699714371919792,"elevation":-7.429484855375303,"azimuth":258.345495855576,"range":42512.14040556343,"height":35785.88480872164,"velocity":3.0747629789137974},"x":299,"y":-197,"dx":17,"dy":-26},{"OBJECT_ID":"2003-013B","OBJECT_NAME":"GALAXY 12","NORAD_CAT_ID":"27715","OBJECT_TYPE":"PAYLOAD","PERIOD":"1436.087","INCLINATION":"0.0631","APOGEE":"35797.477","PERIGEE":"35775.349","ECCENTRICITY":"0.0002624","MEAN_MOTION":"1.00272441","TLE_LINE1":"1 27715U 03013B   16239.41313241  .00000030  00000-0  00000+0 0  9991","TLE_LINE2":"2 27715   0.0631 270.2521 0002624 271.7312 172.8168  1.00272441 49096","LAUNCH_DATE":"2003-04-09","LAUNCH_SITE":"FRENCH GUIANA","OWNER":"INTERNATIONAL TELECOMMUNICATIONS SATELLITE ORGANIZATION (INTELSAT)","ORBIT_TYPE":"Geosynchronous","OPERATIONAL_STATUS":"Operational (spare)","satInfo":{"lng":-111.10218856453473,"lat":-0.6026107404702202,"elevation":-9.166400902693612,"azimuth":66.10218856453469,"range":42685.53455547338,"height":35764.62546917311,"velocity":3.0758298820410004},"x":-334,"y":129,"dx":-11,"dy":29},{"OBJECT_ID":"2003-013C","OBJECT_NAME":"ARIANE 5 R/B","NORAD_CAT_ID":"27716","OBJECT_TYPE":"ROCKET BODY","PERIOD":"642.759","INCLINATION":"1.672","APOGEE":"35741.946","PERIGEE":"844.443","ECCENTRICITY":"0.7072481","MEAN_MOTION":"2.24033989","TLE_LINE1":"1 27716U 03013C   16238.78943113 -.00000054  00000-0  15778-3 0  9997","TLE_LINE2":"2 27716   1.6720  39.0105 7072481  49.8617 298.5022  2.24033989109539","LAUNCH_DATE":"2003-04-09","LAUNCH_SITE":"FRENCH GUIANA","OWNER":"FRANCE","ORBIT_TYPE":"Highly Elliptical Orbit","OPERATIONAL_STATUS":"N/A, derelict rocket body","satInfo":{"lng":-39.264901717445774,"lat":-3.007890890582345,"elevation":-11.52139144718932,"azimuth":354.26490171744575,"range":42866.94035108184,"height":35682.93126097943,"velocity":1.6724616710644484},"x":-226,"y":-276,"dx":13,"dy":11},{"OBJECT_ID":"2003-014A","OBJECT_NAME":"ASIASAT 4","NORAD_CAT_ID":"27718","OBJECT_TYPE":"PAYLOAD","PERIOD":"1436.150","INCLINATION":"0.0092","APOGEE":"35793.544","PERIGEE":"35781.763","ECCENTRICITY":"0.0001397","MEAN_MOTION":"1.00268014","TLE_LINE1":"1 27718U 03014A   16238.80674259 -.00000387 +00000-0 +00000-0 0  9993","TLE_LINE2":"2 27718 000.0092 162.4200 0001397 284.8762 299.6986 01.00268014049004","LAUNCH_DATE":"2003-04-12","LAUNCH_SITE":"AIR FORCE EASTERN TEST RANGE","OWNER":"ASIASAT CORP","ORBIT_TYPE":"Geosynchronous","OPERATIONAL_STATUS":"Operational","satInfo":{"lng":78.93963987405805,"lat":-0.8266970383251449,"elevation":-9.376128562076557,"azimuth":236.06036012594188,"range":42753.481113660404,"height":35808.54965658962,"velocity":3.0740660613174557},"x":351,"y":-69,"dx":6,"dy":-30},{"OBJECT_ID":"2003-020A","OBJECT_NAME":"HELLAS-SAT 2","NORAD_CAT_ID":"27811","OBJECT_TYPE":"PAYLOAD","PERIOD":"1436.056","INCLINATION":"0.0364","APOGEE":"35801.909","PERIGEE":"35769.688","ECCENTRICITY":"0.0003821","MEAN_MOTION":"1.00274632","TLE_LINE1":"1 27811U 03020A   16239.18626075  .00000124  00000-0  00000+0 0  9996","TLE_LINE2":"2 27811   0.0364 297.7863 0003821 224.0426 279.0937  1.00274632 48420","LAUNCH_DATE":"2003-05-13","LAUNCH_SITE":"AIR FORCE EASTERN TEST RANGE","OWNER":"GREECE","ORBIT_TYPE":"Geosynchronous","OPERATIONAL_STATUS":"Operational","satInfo":{"lng":98.69770270080082,"lat":0.48094871650452664,"elevation":-8.10671130918642,"azimuth":216.30229729919918,"range":42574.036030098025,"height":35771.946394228034,"velocity":3.075179919476236},"x":354,"y":54,"dx":-5,"dy":-30},{"OBJECT_ID":"2003-024A","OBJECT_NAME":"AMC-9 (GE-12)","NORAD_CAT_ID":"27820","OBJECT_TYPE":"PAYLOAD","PERIOD":"1436.104","INCLINATION":"0.0636","APOGEE":"35798.954","PERIGEE":"35774.523","ECCENTRICITY":"0.0002897","MEAN_MOTION":"1.00271278","TLE_LINE1":"1 27820U 03024A   16239.27851650 -.00000244  00000-0  00000+0 0  9993","TLE_LINE2":"2 27820   0.0636 285.0864 0002897 234.6528 192.4665  1.00271278 48413","LAUNCH_DATE":"2003-06-06","LAUNCH_SITE":"TYURATAM MISSILE AND SPACE COMPLEX","OWNER":"SOCIÉTÉ EUROPÉENNE DES SATELLITES","ORBIT_TYPE":"Geosynchronous","OPERATIONAL_STATUS":"Operational","satInfo":{"lng":-99.90342659867979,"lat":-0.7279951963556165,"elevation":-9.283082007053848,"azimuth":54.90342659867978,"range":42726.92233802014,"height":35792.608073657815,"velocity":3.0746351834677883},"x":-353,"y":62,"dx":-5,"dy":30}]